{
  "type": "FeatureCollection",
  "features": [
    {
      "type": "Feature",
      "properties": {
        "norad_id": 30480,
        "name": "FENGYUN 1C DEB",
        "group": "fengyun-1c-debris",
        "lat": 63.2174661201125,
        "lon": -152.17160643441156,
        "alt_km": 654.1442128528306,
        "timestamp": "2025-12-22T20:43:46.125236+00:00",
        "meta_object_name": "FENGYUN 1C DEB",
        "meta_object_id": "1999-025AGS",
        "meta_epoch": "2025-12-22T06:51:24.786720",
        "meta_mean_motion": 14.3361204,
        "meta_eccentricity": 0.01667171,
        "meta_inclination": 98.2232,
        "meta_ra_of_asc_node": 10.6306,
        "meta_arg_of_pericenter": 117.2893,
        "meta_mean_anomaly": 256.7801,
        "meta_ephemeris_type": 0,
        "meta_classification_type": "U",
        "meta_norad_cat_id": 30480,
        "meta_element_set_no": 999,
        "meta_rev_at_epoch": 98805,
        "meta_bstar": 0.00019280036,
        "meta_mean_motion_dot": 5.81e-06,
        "meta_mean_motion_ddot": 0,
        "tle_line1": "1 30480U 99025AGS 25356.28570355  .00000581  00000+0  19280-3 0  9992",
        "tle_line2": "2 30480  98.2232  10.6306 0166717 117.2893 256.7801 14.33612040988051"
      },
      "geometry": {
        "type": "Point",
        "coordinates": [
          -152.17160643441156,
          63.2174661201125
        ]
      }
    },
    {
      "type": "Feature",
      "properties": {
        "norad_id": 30481,
        "name": "FENGYUN 1C DEB",
        "group": "fengyun-1c-debris",
        "lat": 64.44313185813662,
        "lon": -3.9614818431473675,
        "alt_km": 907.8848147855751,
        "timestamp": "2025-12-22T20:43:46.125246+00:00",
        "meta_object_name": "FENGYUN 1C DEB",
        "meta_object_id": "1999-025AGT",
        "meta_epoch": "2025-12-22T14:20:06.822816",
        "meta_mean_motion": 14.39075127,
        "meta_eccentricity": 0.022321,
        "meta_inclination": 98.3364,
        "meta_ra_of_asc_node": 13.6355,
        "meta_arg_of_pericenter": 230.2201,
        "meta_mean_anomaly": 256.8419,
        "meta_ephemeris_type": 0,
        "meta_classification_type": "U",
        "meta_norad_cat_id": 30481,
        "meta_element_set_no": 999,
        "meta_rev_at_epoch": 98625,
        "meta_bstar": 0.00040152544,
        "meta_mean_motion_dot": 1.608e-05,
        "meta_mean_motion_ddot": 0,
        "tle_line1": "1 30481U 99025AGT 25356.59730119  .00001608  00000+0  40153-3 0  9997",
        "tle_line2": "2 30481  98.3364  13.6355 0223210 230.2201 256.8419 14.39075127986258"
      },
      "geometry": {
        "type": "Point",
        "coordinates": [
          -3.9614818431473675,
          64.44313185813662
        ]
      }
    },
    {
      "type": "Feature",
      "properties": {
        "norad_id": 30489,
        "name": "FENGYUN 1C DEB",
        "group": "fengyun-1c-debris",
        "lat": 26.249195953081436,
        "lon": -164.5274423876522,
        "alt_km": 823.7120057144002,
        "timestamp": "2025-12-22T20:43:46.125256+00:00",
        "meta_object_name": "FENGYUN 1C DEB",
        "meta_object_id": "1999-025AHB",
        "meta_epoch": "2025-12-22T12:15:31.343616",
        "meta_mean_motion": 14.15831778,
        "meta_eccentricity": 0.01391202,
        "meta_inclination": 98.4679,
        "meta_ra_of_asc_node": 10.9241,
        "meta_arg_of_pericenter": 236.6794,
        "meta_mean_anomaly": 280.2749,
        "meta_ephemeris_type": 0,
        "meta_classification_type": "U",
        "meta_norad_cat_id": 30489,
        "meta_element_set_no": 999,
        "meta_rev_at_epoch": 97525,
        "meta_bstar": 0.00023298057,
        "meta_mean_motion_dot": 4.61e-06,
        "meta_mean_motion_ddot": 0,
        "tle_line1": "1 30489U 99025AHB 25356.51077944  .00000461  00000+0  23298-3 0  9994",
        "tle_line2": "2 30489  98.4679  10.9241 0139120 236.6794 280.2749 14.15831778975254"
      },
      "geometry": {
        "type": "Point",
        "coordinates": [
          -164.5274423876522,
          26.249195953081436
        ]
      }
    },
    {
      "type": "Feature",
      "properties": {
        "norad_id": 30490,
        "name": "FENGYUN 1C DEB",
        "group": "fengyun-1c-debris",
        "lat": 48.794709702037146,
        "lon": -40.63730972668162,
        "alt_km": 450.37721449820765,
        "timestamp": "2025-12-22T20:43:46.125266+00:00",
        "meta_object_name": "FENGYUN 1C DEB",
        "meta_object_id": "1999-025AHC",
        "meta_epoch": "2025-12-21T19:03:21.852288",
        "meta_mean_motion": 15.30169227,
        "meta_eccentricity": 0.00454286,
        "meta_inclination": 98.3293,
        "meta_ra_of_asc_node": 128.5315,
        "meta_arg_of_pericenter": 83.8939,
        "meta_mean_anomaly": 276.7472,
        "meta_ephemeris_type": 0,
        "meta_classification_type": "U",
        "meta_norad_cat_id": 30490,
        "meta_element_set_no": 999,
        "meta_rev_at_epoch": 99634,
        "meta_bstar": 0.0032017095,
        "meta_mean_motion_dot": 0.00097463,
        "meta_mean_motion_ddot": 0,
        "tle_line1": "1 30490U 99025AHC 25355.79400292  .00097463  00000+0  32017-2 0  9997",
        "tle_line2": "2 30490  98.3293 128.5315 0045428  83.8939 276.7472 15.30169227996342"
      },
      "geometry": {
        "type": "Point",
        "coordinates": [
          -40.63730972668162,
          48.794709702037146
        ]
      }
    },
    {
      "type": "Feature",
      "properties": {
        "norad_id": 30492,
        "name": "FENGYUN 1C DEB",
        "group": "fengyun-1c-debris",
        "lat": 30.436746443015057,
        "lon": -153.83552244269526,
        "alt_km": 742.5386246055868,
        "timestamp": "2025-12-22T20:43:46.125276+00:00",
        "meta_object_name": "FENGYUN 1C DEB",
        "meta_object_id": "1999-025AHE",
        "meta_epoch": "2025-12-22T06:49:32.075328",
        "meta_mean_motion": 14.52072491,
        "meta_eccentricity": 0.00942038,
        "meta_inclination": 102.3241,
        "meta_ra_of_asc_node": 17.9376,
        "meta_arg_of_pericenter": 37.3088,
        "meta_mean_anomaly": 323.4587,
        "meta_ephemeris_type": 0,
        "meta_classification_type": "U",
        "meta_norad_cat_id": 30492,
        "meta_element_set_no": 999,
        "meta_rev_at_epoch": 97033,
        "meta_bstar": 0.0035100139,
        "meta_mean_motion_dot": 0.00015,
        "meta_mean_motion_ddot": 0,
        "tle_line1": "1 30492U 99025AHE 25356.28439902  .00015000  00000+0  35100-2 0  9997",
        "tle_line2": "2 30492 102.3241  17.9376 0094203  37.3088 323.4587 14.52072491970332"
      },
      "geometry": {
        "type": "Point",
        "coordinates": [
          -153.83552244269526,
          30.436746443015057
        ]
      }
    },
    {
      "type": "Feature",
      "properties": {
        "norad_id": 30493,
        "name": "FENGYUN 1C DEB",
        "group": "fengyun-1c-debris",
        "lat": 61.693611666038436,
        "lon": 22.717402596496765,
        "alt_km": 868.4422281885873,
        "timestamp": "2025-12-22T20:43:46.125286+00:00",
        "meta_object_name": "FENGYUN 1C DEB",
        "meta_object_id": "1999-025AHF",
        "meta_epoch": "2025-12-21T11:32:53.736864",
        "meta_mean_motion": 13.93028645,
        "meta_eccentricity": 0.01807391,
        "meta_inclination": 98.5714,
        "meta_ra_of_asc_node": 185.1743,
        "meta_arg_of_pericenter": 192.5655,
        "meta_mean_anomaly": 196.8682,
        "meta_ephemeris_type": 0,
        "meta_classification_type": "U",
        "meta_norad_cat_id": 30493,
        "meta_element_set_no": 999,
        "meta_rev_at_epoch": 95217,
        "meta_bstar": 0.0021722831,
        "meta_mean_motion_dot": 3.191e-05,
        "meta_mean_motion_ddot": 0,
        "tle_line1": "1 30493U 99025AHF 25355.48117751  .00003191  00000+0  21723-2 0  9998",
        "tle_line2": "2 30493  98.5714 185.1743 0180739 192.5655 196.8682 13.93028645952170"
      },
      "geometry": {
        "type": "Point",
        "coordinates": [
          22.717402596496765,
          61.693611666038436
        ]
      }
    },
    {
      "type": "Feature",
      "properties": {
        "norad_id": 30494,
        "name": "FENGYUN 1C DEB",
        "group": "fengyun-1c-debris",
        "lat": -78.93781082140366,
        "lon": 155.2828085821848,
        "alt_km": 920.9233635572218,
        "timestamp": "2025-12-22T20:43:46.125296+00:00",
        "meta_object_name": "FENGYUN 1C DEB",
        "meta_object_id": "1999-025AHG",
        "meta_epoch": "2025-12-20T20:27:26.731008",
        "meta_mean_motion": 13.79394652,
        "meta_eccentricity": 0.0186172,
        "meta_inclination": 99.2815,
        "meta_ra_of_asc_node": 30.0747,
        "meta_arg_of_pericenter": 200.8117,
        "meta_mean_anomaly": 158.5384,
        "meta_ephemeris_type": 0,
        "meta_classification_type": "U",
        "meta_norad_cat_id": 30494,
        "meta_element_set_no": 999,
        "meta_rev_at_epoch": 94598,
        "meta_bstar": 0.0010376,
        "meta_mean_motion_dot": 1.17e-05,
        "meta_mean_motion_ddot": 0,
        "tle_line1": "1 30494U 99025AHG 25354.85239272  .00001170  00000+0  10376-2 0  9999",
        "tle_line2": "2 30494  99.2815  30.0747 0186172 200.8117 158.5384 13.79394652945989"
      },
      "geometry": {
        "type": "Point",
        "coordinates": [
          155.2828085821848,
          -78.93781082140366
        ]
      }
    }
  ]
}